{
    "links": {
        "self": "http://www.neowsapp.com/rest/v1/neo/3398133?api_key=iIulBulltgU6a56xZRHN4H3l9WmuAYTsLGpBGhQ2"
    },
    "id": "3398133",
    "neo_reference_id": "3398133",
    "name": "(2007 YM1)",
    "designation": "2007 YM1",
    "nasa_jpl_url": "http://ssd.jpl.nasa.gov/sbdb.cgi?sstr=3398133",
    "absolute_magnitude_h": 20.8,
    "estimated_diameter": {
        "kilometers": {
            "estimated_diameter_min": 0.1838886721,
            "estimated_diameter_max": 0.411187571
        },
        "meters": {
            "estimated_diameter_min": 183.8886720703,
            "estimated_diameter_max": 411.1875710413
        },
        "miles": {
            "estimated_diameter_min": 0.1142630881,
            "estimated_diameter_max": 0.2555000322
        },
        "feet": {
            "estimated_diameter_min": 603.309310875,
            "estimated_diameter_max": 1349.040630575
        }
    },
    "is_potentially_hazardous_asteroid": false,
    "close_approach_data": [
        {
            "close_approach_date": "2007-12-21",
            "close_approach_date_full": "2007-Dec-21 19:22",
            "epoch_date_close_approach": 1198264920000,
            "relative_velocity": {
                "kilometers_per_second": "18.6418189006",
                "kilometers_per_hour": "67110.5480422136",
                "miles_per_hour": "41699.8846987855"
            },
            "miss_distance": {
                "astronomical": "0.178373968",
                "lunar": "69.387473552",
                "kilometers": "26684365.67624816",
                "miles": "16580895.964858208"
            },
            "orbiting_body": "Earth"
        }
    ],
    "orbital_data": {
        "orbit_id": "14",
        "orbit_determination_date": "2017-04-06 09:04:52",
        "first_observation_date": "2007-12-18",
        "last_observation_date": "2008-01-10",
        "data_arc_in_days": 23,
        "observations_used": 75,
        "orbit_uncertainty": "7",
        "minimum_orbit_intersection": ".158706",
        "jupiter_tisserand_invariant": "3.095",
        "epoch_osculation": "2459000.5",
        "eccentricity": ".5358678428759344",
        "semi_major_axis": "2.459888369177583",
        "inclination": "32.49327842149127",
        "ascending_node_longitude": "266.5355725163166",
        "orbital_period": "1409.196401430413",
        "perihelion_distance": "1.141713295070791",
        "perihelion_argument": "183.49188087",
        "aphelion_distance": "3.778063443284374",
        "perihelion_time": "2458688.911387895429",
        "mean_anomaly": "79.59990548072982",
        "mean_motion": ".2554647454638543",
        "equinox": "J2000",
        "orbit_class": {
            "orbit_class_type": "AMO",
            "orbit_class_description": "Near-Earth asteroid orbits similar to that of 1221 Amor",
            "orbit_class_range": "1.017 AU < q (perihelion) < 1.3 AU"
        }
    },
    "is_sentry_object": false
}